NORAD_CAT_ID,OBJECT_NAME,OBJECT_TYPE,EPOCH,MEAN_MOTION,ECCENTRICITY,INCLINATION,RA_OF_ASC_NODE,ARG_OF_PERICENTER,MEAN_ANOMALY,BSTAR,MEAN_MOTION_DOT,MEAN_MOTION_DDOT,TLE_LINE0,TLE_LINE1,TLE_LINE2,SEMIMAJOR_AXIS,PERIOD,APOGEE,PERIGEE,DECAYED
53288.0,STARLINK-4162,PAYLOAD,2024-07-18 17:16:46,15.08846207,0.0001114,53.2173,353.0001,82.3675,277.7443,0.00015916,2.247e-05,0.0,0 STARLINK-4162,1 53288U 22086AY  24200.71997884  .00002247  00000-0  15916-3 0  9995,2 53288  53.2173 353.0001 0001114  82.3675 277.7443 15.08846207110769,6917.861,95.437,540.497,538.956,0.0
53288.0,STARLINK-4162,PAYLOAD,2024-07-19 09:10:38,15.08820995,0.0001259,53.218,350.0282,87.7373,272.3764,0.00065532,0.00010151,0.0,0 STARLINK-4162,1 53288U 22086AY  24201.38238921  .00010151  00000-0  65532-3 0  9991,2 53288  53.2180 350.0282 0001259  87.7373 272.3764 15.08820995110706,6917.938,95.439,540.674,538.933,0.0
53288.0,STARLINK-4162,PAYLOAD,2024-07-19 13:56:47,15.08832747,8.94e-05,53.2169,349.1331,71.6786,288.4304,4.427e-05,4.17e-06,0.0,0 STARLINK-4162,1 53288U 22086AY  24201.58110588  .00000417  00000-0  44270-4 0  9992,2 53288  53.2169 349.1331 0000894  71.6786 288.4304 15.08832747110897,6917.903,95.438,540.386,539.149,0.0
53288.0,STARLINK-4162,PAYLOAD,2024-07-19 17:07:33,15.08831665,8.74e-05,53.2166,348.5399,80.0103,280.0988,2.1939e-06,-2.53e-06,0.0,0 STARLINK-4162,1 53288U 22086AY  24201.71358639 -.00000253  00000-0  21939-5 0  9995,2 53288  53.2166 348.5399 0000874  80.0103 280.0988 15.08831665110913,6917.906,95.438,540.375,539.166,0.0
53288.0,STARLINK-4162,PAYLOAD,2024-07-20 02:39:52,15.0884695,0.0001078,53.2179,346.7524,62.52,297.5901,0.00018631,2.679e-05,0.0,0 STARLINK-4162,1 53288U 22086AY  24202.11101969  .00002679  00000-0  18631-3 0  9998,2 53288  53.2179 346.7524 0001078  62.5200 297.5901 15.08846950110817,6917.859,95.437,540.47,538.978,0.0
53288.0,STARLINK-4162,PAYLOAD,2024-07-20 09:01:25,15.08834815,0.000206,53.2173,345.5647,75.7305,284.3916,-5.8242e-05,-1.215e-05,0.0,0 STARLINK-4162,1 53288U 22086AY  24202.37598901 -.00001215  00000-0 -58242-4 0  9992,2 53288  53.2173 345.5647 0002060  75.7305 284.3916 15.08834815110859,6917.896,95.438,541.186,538.336,0.0
53288.0,STARLINK-4162,PAYLOAD,2024-07-20 13:47:34,15.0883285,0.0001982,53.2186,344.675,84.1823,275.9395,-1.2368e-05,-4.85e-06,0.0,0 STARLINK-4162,1 53288U 22086AY  24202.57471060 -.00000485  00000-0 -12368-4 0  9997,2 53288  53.2186 344.6750 0001982  84.1823 275.9395 15.08832850111045,6917.902,95.438,541.138,538.396,0.0
53288.0,STARLINK-4162,PAYLOAD,2024-07-20 16:58:20,15.08840979,0.0001034,53.2172,344.0781,78.4326,281.6782,5.355e-05,5.65e-06,0.0,0 STARLINK-4162,1 53288U 22086AY  24202.70718509  .00000565  00000-0  53550-4 0  9999,2 53288  53.2172 344.0781 0001034  78.4326 281.6782 15.08840979111067,6917.877,95.437,540.458,539.027,0.0
53288.0,STARLINK-4162,PAYLOAD,2024-07-21 13:38:21,15.08837998,9.19e-05,53.2173,340.2131,95.8177,264.292,0.00014988,2.098e-05,0.0,0 STARLINK-4162,1 53288U 22086AY  24203.56830913  .00002098  00000-0  14988-3 0  9992,2 53288  53.2173 340.2131 0000919  95.8177 264.2920 15.08837998111195,6917.887,95.438,540.387,539.116,0.0
53288.0,STARLINK-4162,PAYLOAD,2024-07-21 16:49:08,15.08839521,0.000126,53.2189,339.6186,91.0487,269.0649,0.00020805,3.025e-05,0.0,0 STARLINK-4162,1 53288U 22086AY  24203.70078940  .00003025  00000-0  20805-3 0  9998,2 53288  53.2189 339.6186 0001260  91.0487 269.0649 15.08839521111214,6917.882,95.438,540.619,538.875,0.0
53288.0,STARLINK-4162,PAYLOAD,2024-07-23 14:55:19,15.08844595,0.0001412,53.2188,330.9981,80.6992,279.416,0.00016953,2.411e-05,0.0,0 STARLINK-4162,1 53288U 22086AY  24205.62175091  .00002411  00000-0  16953-3 0  9993,2 53288  53.2188 330.9981 0001412  80.6992 279.4160 15.08844595111506,6917.866,95.437,540.708,538.755,0.0
53288.0,STARLINK-4162,PAYLOAD,2024-07-23 18:06:05,15.08844043,0.0001341,53.2186,330.4022,83.0848,277.0296,0.00013469,1.857e-05,0.0,0 STARLINK-4162,1 53288U 22086AY  24205.75423040  .00001857  00000-0  13469-3 0  9999,2 53288  53.2186 330.4022 0001341  83.0848 277.0296 15.08844043111369,6917.868,95.437,540.661,538.805,0.0
53288.0,STARLINK-4162,PAYLOAD,2024-07-24 08:24:34,15.08837725,0.0001264,53.2181,327.7243,79.4221,280.6913,3.5151e-05,2.72e-06,0.0,0 STARLINK-4162,1 53288U 22086AY  24206.35039363  .00000272  00000-0  35151-4 0  9990,2 53288  53.2181 327.7243 0001264  79.4221 280.6913 15.08837725111451,6917.887,95.438,540.627,538.878,0.0
53288.0,STARLINK-4162,PAYLOAD,2024-07-24 17:56:52,15.08841764,0.0001363,53.2186,325.9412,76.8181,283.2963,9.1065e-05,1.162e-05,0.0,0 STARLINK-4162,1 53288U 22086AY  24206.74783198  .00001162  00000-0  91065-4 0  9990,2 53288  53.2186 325.9412 0001363  76.8181 283.2963 15.08841764111676,6917.875,95.437,540.683,538.797,0.0
53288.0,STARLINK-4162,PAYLOAD,2024-07-26 00:09:12,15.08838909,0.0001424,53.2159,320.2918,77.4786,282.6365,9.9431e-05,1.295e-05,0.0,0 STARLINK-4162,1 53288U 22086AY  24208.00639324  .00001295  00000-0  99431-4 0  9994,2 53288  53.2159 320.2918 0001424  77.4786 282.6365 15.08838909111701,6917.884,95.438,540.734,538.764,0.0
53288.0,STARLINK-4162,PAYLOAD,2024-07-26 08:06:08,15.08835016,0.0001419,53.2194,318.8046,80.7975,279.3177,-1.2927e-05,-4.94e-06,0.0,0 STARLINK-4162,1 53288U 22086AY  24208.33759745 -.00000494  00000-0 -12927-4 0  9997,2 53288  53.2194 318.8046 0001419  80.7975 279.3177 15.08835016111919,6917.896,95.438,540.742,538.779,0.0
53288.0,STARLINK-4162,PAYLOAD,2024-07-26 19:13:49,15.08841892,0.0001984,53.2155,316.7245,95.3752,264.7467,0.00013177,1.81e-05,0.0,0 STARLINK-4162,1 53288U 22086AY  24208.80127132  .00001810  00000-0  13177-3 0  9996,2 53288  53.2155 316.7245 0001984  95.3752 264.7467 15.08841892111982,6917.875,95.437,541.112,538.367,0.0
53288.0,STARLINK-4162,PAYLOAD,2024-07-27 17:29:15,15.08827134,0.0001893,53.2168,312.5624,87.3378,272.7831,-8.2328e-06,-4.19e-06,0.0,0 STARLINK-4162,1 53288U 22086AY  24209.72865023 -.00000419  00000-0 -82328-5 0  9998,2 53288  53.2168 312.5624 0001893  87.3378 272.7831 15.08827134112129,6917.92,95.438,541.094,538.475,0.0
53288.0,STARLINK-4162,PAYLOAD,2024-07-27 23:50:47,15.08834792,0.0001762,53.2158,311.3733,93.1399,266.9795,5.6993e-05,6.19e-06,0.0,0 STARLINK-4162,1 53288U 22086AY  24209.99360476  .00000619  00000-0  56993-4 0  9997,2 53288  53.2158 311.3733 0001762  93.1399 266.9795 15.08834792112008,6917.896,95.438,540.98,538.542,0.0
53288.0,STARLINK-4162,PAYLOAD,2024-07-28 12:33:51,15.08847082,0.0001105,53.2166,308.9935,84.9639,275.1479,0.00010899,1.448e-05,0.0,0 STARLINK-4162,1 53288U 22086AY  24210.52351655  .00001448  00000-0  10899-3 0  9992,2 53288  53.2166 308.9935 0001105  84.9639 275.1479 15.08847082112084,6917.859,95.437,540.488,538.959,0.0
53288.0,STARLINK-4162,PAYLOAD,2024-07-28 15:44:38,15.08849607,0.0001591,53.2164,308.3983,87.2949,272.8225,0.0002122,3.092e-05,0.0,0 STARLINK-4162,1 53288U 22086AY  24210.65599577  .00003092  00000-0  21220-3 0  9990,2 53288  53.2164 308.3983 0001591  87.2949 272.8225 15.08849607112266,6917.851,95.437,540.817,538.615,0.0
53288.0,STARLINK-4162,PAYLOAD,2024-07-28 23:41:32,15.08868899,0.0001544,53.2162,306.9118,95.1235,264.9934,-1.617e-05,-5.46e-06,0.0,0 STARLINK-4162,1 53288U 22086AY  24210.98718257 -.00000546  00000-0 -16170-4 0  9996,2 53288  53.2162 306.9118 0001544  95.1235 264.9934 15.08868899112153,6917.792,95.436,540.725,538.589,0.0
53288.0,STARLINK-4162,PAYLOAD,2024-07-29 12:24:38,15.08844074,0.0001664,53.2158,304.5325,90.9952,269.1231,0.00014611,2.038e-05,0.0,0 STARLINK-4162,1 53288U 22086AY  24211.51711794  .00002038  00000-0  14611-3 0  9998,2 53288  53.2158 304.5325 0001664  90.9952 269.1231 15.08844074112239,6917.868,95.437,540.884,538.582,0.0
53288.0,STARLINK-4162,PAYLOAD,2024-07-29 14:00:02,15.08844664,0.0001588,53.2158,304.2352,91.5664,268.551,0.00016736,2.377e-05,0.0,0 STARLINK-4162,1 53288U 22086AY  24211.58335801  .00002377  00000-0  16736-3 0  9992,2 53288  53.2158 304.2352 0001588  91.5664 268.5510 15.08844664112405,6917.866,95.437,540.83,538.633,0.0
53288.0,STARLINK-4162,PAYLOAD,2024-07-29 23:32:20,15.08855411,0.0001232,53.216,302.4488,111.3826,248.7298,0.00036884,5.59e-05,0.0,0 STARLINK-4162,1 53288U 22086AY  24211.98079098  .00005590  00000-0  36884-3 0  9995,2 53288  53.2160 302.4488 0001232 111.3826 248.7298 15.08855411112309,6917.833,95.437,540.551,538.846,0.0
53288.0,STARLINK-4162,PAYLOAD,2024-07-30 12:15:25,15.08856532,0.0002688,53.2142,300.0697,86.0433,274.0866,0.0003703,5.613e-05,0.0,0 STARLINK-4162,1 53288U 22086AY  24212.51071199  .00005613  00000-0  37030-3 0  9999,2 53288  53.2142 300.0697 0002688  86.0433 274.0866 15.08856532112547,6917.83,95.437,541.554,537.835,0.0
53288.0,STARLINK-4162,PAYLOAD,2024-07-31 12:06:13,15.08835583,0.0001103,53.2152,295.6104,91.2294,268.8824,1.3146e-05,-7.9e-07,0.0,0 STARLINK-4162,1 53288U 22086AY  24213.50432025 -.00000079  00000-0  13146-4 0  9993,2 53288  53.2152 295.6104 0001103  91.2294 268.8824 15.08835583112531,6917.894,95.438,540.522,538.996,0.0
53288.0,STARLINK-4162,PAYLOAD,2024-07-31 15:16:59,15.08839079,9.9e-05,53.2152,295.0165,91.0834,269.0271,-0.00010683,-1.987e-05,0.0,0 STARLINK-4162,1 53288U 22086AY  24213.63679931 -.00001987  00000-0 -10683-3 0  9998,2 53288  53.2152 295.0165 0000990  91.0834 269.0271 15.08839079112716,6917.883,95.438,540.433,539.063,0.0
53288.0,STARLINK-4162,PAYLOAD,2024-08-01 11:57:00,15.08854838,0.0001316,53.2162,291.1505,93.0282,267.0861,0.00057112,8.817e-05,0.0,0 STARLINK-4162,1 53288U 22086AY  24214.49791810  .00008817  00000-0  57112-3 0  9999,2 53288  53.2162 291.1505 0001316  93.0282 267.0861 15.08854838112683,6917.835,95.437,540.61,538.79,0.0
53288.0,STARLINK-4162,PAYLOAD,2024-08-01 15:07:46,15.0885963,0.0001288,53.2159,290.5552,92.7645,267.3494,0.00064528,0.00010002,0.0,0 STARLINK-4162,1 53288U 22086AY  24214.63039590  .00010002  00000-0  64528-3 0  9993,2 53288  53.2159 290.5552 0001288  92.7645 267.3494 15.08859630112861,6917.82,95.436,540.576,538.794,0.0
